*******************************************************************************
Ephemeris / WWW_USER Tue Mar 11 05:33:59 2025 Pasadena, USA      / Horizons    
*******************************************************************************
Target body name: (2018 WV1)                      {source: JPL#17}
Center body name: Earth (399)                     {source: DE441}
Center-site name: Gemini South Obs., Cerro Pachon
*******************************************************************************
Start time      : A.D. 2018-Jul-31 22:18:00.0000 UT      
Stop  time      : A.D. 2018-Aug-01 11:20:00.0000 UT      
Step-size       : 1 minutes
*******************************************************************************
Target pole/equ : undefined
Target radii    : undefined                                                    
Center geodetic : 289.2634, -30.2406227, 2.71233  {E-lon(deg),Lat(deg),Alt(km)}
Center cylindric: 289.2634,5517.21435,-3194.81213 {E-lon(deg),Dxy(km),Dz(km)}
Center pole/equ : ITRF93                          {East-longitude positive}
Center radii    : 6378.137, 6378.137, 6356.752 km {Equator_a, b, pole_c}       
Target primary  : Sun
Vis. interferer : MOON (R_eq= 1737.400) km        {source: DE441}
Rel. light bend : Sun                             {source: DE441}
Rel. lght bnd GM: 1.3271E+11 km^3/s^2                                          
Small-body perts: Yes                             {source: SB441-N16}
Atmos refraction: NO (AIRLESS)
RA format       : HMS
Time format     : CAL 
Calendar mode   : Mixed Julian/Gregorian
RTS-only print  : NO       
EOP file        : eop.250310.p250606                                           
EOP coverage    : DATA-BASED 1962-JAN-20 TO 2025-MAR-10. PREDICTS-> 2025-JUN-05
Units conversion: 1 au= 149597870.700 km, c= 299792.458 km/s, 1 day= 86400.0 s 
Table cut-offs 1: Elevation (-90.0deg=NO ),Airmass (>38.000=NO), Daylight (YES)
Table cut-offs 2: Solar elongation (  0.0,180.0=NO ),Local Hour Angle( 0.0=NO )
Table cut-offs 3: RA/DEC angular rate (     0.0=NO )                           
*******************************************************************************
Initial IAU76/J2000 heliocentric ecliptic osculating elements (au, days, deg.):
  EPOCH=  2458458.5 ! 2018-Dec-06.00 (TDB)         Residual RMS= .12928        
   EC= .06869100257422787  QR= .9715505345748198   TP= 2458416.866413563       
   OM= 248.5061090469913   W=  141.3742304527303   IN= 1.905403987972275       
  Equivalent ICRF heliocentric cartesian coordinates (au, au/d):
   X= 2.787163119783287E-01  Y= 8.719775267121872E-01  Z= 3.748421051204766E-01
  VX=-1.676682657337402E-02 VY= 5.516972965834891E-03 VZ= 1.749720915605096E-03
Asteroid physical parameters (km, seconds, rotational period in hours):        
   GM= n.a.                RAD= n.a.               ROTPER= n.a.                
   H= 30.3                 G= .150                 B-V= n.a.                   
                           ALBEDO= n.a.            STYP= n.a.                  
*******************************************************************************
 Date__(UT)__HR:MN     R.A._________(ICRF)_________DEC
******************************************************
$$SOE
 2018-Jul-31 22:18 C   00 34 06.047423 +06 08 11.63406
 2018-Jul-31 22:19 C   00 34 06.134268 +06 08 12.26452
 2018-Jul-31 22:20 C   00 34 06.221097 +06 08 12.89502
 2018-Jul-31 22:21 C   00 34 06.307911 +06 08 13.52558
 2018-Jul-31 22:22 C   00 34 06.394710 +06 08 14.15619
 2018-Jul-31 22:23 C   00 34 06.481492 +06 08 14.78686
 2018-Jul-31 22:24 C   00 34 06.568259 +06 08 15.41757
 2018-Jul-31 22:25 C   00 34 06.655010 +06 08 16.04834
 2018-Jul-31 22:26 C   00 34 06.741744 +06 08 16.67916
 2018-Jul-31 22:27 C   00 34 06.828462 +06 08 17.31003
 2018-Jul-31 22:28 C   00 34 06.915163 +06 08 17.94095
 2018-Jul-31 22:29 C   00 34 07.001848 +06 08 18.57192
 2018-Jul-31 22:30 C   00 34 07.088516 +06 08 19.20295
 2018-Jul-31 22:31 C   00 34 07.175167 +06 08 19.83402
 2018-Jul-31 22:32 C   00 34 07.261801 +06 08 20.46515
 2018-Jul-31 22:33 C   00 34 07.348418 +06 08 21.09633
 2018-Jul-31 22:34 C   00 34 07.435017 +06 08 21.72756
 2018-Jul-31 22:35 N   00 34 07.521599 +06 08 22.35884
 2018-Jul-31 22:36 N   00 34 07.608163 +06 08 22.99017
 2018-Jul-31 22:37 N   00 34 07.694709 +06 08 23.62155
 2018-Jul-31 22:38 N   00 34 07.781238 +06 08 24.25298
 2018-Jul-31 22:39 N   00 34 07.867748 +06 08 24.88446
 2018-Jul-31 22:40 N   00 34 07.954240 +06 08 25.51599
 2018-Jul-31 22:41 N   00 34 08.040714 +06 08 26.14757
 2018-Jul-31 22:42 N   00 34 08.127169 +06 08 26.77920
 2018-Jul-31 22:43 N   00 34 08.213606 +06 08 27.41088
 2018-Jul-31 22:44 N   00 34 08.300024 +06 08 28.04262
 2018-Jul-31 22:45 N   00 34 08.386423 +06 08 28.67440
 2018-Jul-31 22:46 N   00 34 08.472803 +06 08 29.30623
 2018-Jul-31 22:47 N   00 34 08.559164 +06 08 29.93810
 2018-Jul-31 22:48 N   00 34 08.645505 +06 08 30.57003
 2018-Jul-31 22:49 N   00 34 08.731827 +06 08 31.20201
 2018-Jul-31 22:50 N   00 34 08.818130 +06 08 31.83404
 2018-Jul-31 22:51 N   00 34 08.904413 +06 08 32.46611
 2018-Jul-31 22:52 N   00 34 08.990676 +06 08 33.09823
 2018-Jul-31 22:53 N   00 34 09.076919 +06 08 33.73040
 2018-Jul-31 22:54 N   00 34 09.163142 +06 08 34.36263
 2018-Jul-31 22:55 N   00 34 09.249344 +06 08 34.99489
 2018-Jul-31 22:56 N   00 34 09.335526 +06 08 35.62721
 2018-Jul-31 22:57 N   00 34 09.421688 +06 08 36.25957
 2018-Jul-31 22:58 N   00 34 09.507829 +06 08 36.89199
 2018-Jul-31 22:59 N   00 34 09.593949 +06 08 37.52445
 2018-Jul-31 23:00 N   00 34 09.680049 +06 08 38.15695
 2018-Jul-31 23:01 N   00 34 09.766127 +06 08 38.78951
 2018-Jul-31 23:02 N   00 34 09.852184 +06 08 39.42211
 2018-Jul-31 23:03 N   00 34 09.938220 +06 08 40.05476
 2018-Jul-31 23:04 A   00 34 10.024235 +06 08 40.68745
 2018-Jul-31 23:05 A   00 34 10.110228 +06 08 41.32020
 2018-Jul-31 23:06 A   00 34 10.196199 +06 08 41.95298
 2018-Jul-31 23:07 A   00 34 10.282148 +06 08 42.58582
 2018-Jul-31 23:08 A   00 34 10.368076 +06 08 43.21870
 2018-Jul-31 23:09 A   00 34 10.453981 +06 08 43.85163
 2018-Jul-31 23:10 A   00 34 10.539864 +06 08 44.48460
 2018-Jul-31 23:11 A   00 34 10.625725 +06 08 45.11762
 2018-Jul-31 23:12 A   00 34 10.711563 +06 08 45.75069
 2018-Jul-31 23:13 A   00 34 10.797379 +06 08 46.38380
 2018-Jul-31 23:14 A   00 34 10.883172 +06 08 47.01696
 2018-Jul-31 23:15 A   00 34 10.968942 +06 08 47.65016
 2018-Jul-31 23:16 A   00 34 11.054690 +06 08 48.28341
 2018-Jul-31 23:17 A   00 34 11.140414 +06 08 48.91670
 2018-Jul-31 23:18 A   00 34 11.226115 +06 08 49.55004
 2018-Jul-31 23:19 A   00 34 11.311793 +06 08 50.18342
 2018-Jul-31 23:20 A   00 34 11.397447 +06 08 50.81684
 2018-Jul-31 23:21 A   00 34 11.483078 +06 08 51.45031
 2018-Jul-31 23:22 A   00 34 11.568685 +06 08 52.08383
 2018-Jul-31 23:23 A   00 34 11.654268 +06 08 52.71739
 2018-Jul-31 23:24 A   00 34 11.739827 +06 08 53.35099
 2018-Jul-31 23:25 A   00 34 11.825362 +06 08 53.98463
 2018-Jul-31 23:26 A   00 34 11.910873 +06 08 54.61832
 2018-Jul-31 23:27 A   00 34 11.996360 +06 08 55.25206
 2018-Jul-31 23:28 A   00 34 12.081822 +06 08 55.88583
 2018-Jul-31 23:29 A   00 34 12.167260 +06 08 56.51965
 2018-Jul-31 23:30 A   00 34 12.252673 +06 08 57.15351
 2018-Jul-31 23:31 A   00 34 12.338061 +06 08 57.78742
 2018-Jul-31 23:32 A   00 34 12.423425 +06 08 58.42136
 2018-Jul-31 23:33     00 34 12.508763 +06 08 59.05535
 2018-Jul-31 23:34     00 34 12.594077 +06 08 59.68938
 2018-Jul-31 23:35     00 34 12.679365 +06 09 00.32346
 2018-Jul-31 23:36     00 34 12.764627 +06 09 00.95757
 2018-Jul-31 23:37     00 34 12.849865 +06 09 01.59173
 2018-Jul-31 23:38     00 34 12.935076 +06 09 02.22593
 2018-Jul-31 23:39     00 34 13.020262 +06 09 02.86017
 2018-Jul-31 23:40     00 34 13.105422 +06 09 03.49445
 2018-Jul-31 23:41     00 34 13.190556 +06 09 04.12877
 2018-Jul-31 23:42     00 34 13.275664 +06 09 04.76313
 2018-Jul-31 23:43     00 34 13.360746 +06 09 05.39753
 2018-Jul-31 23:44     00 34 13.445802 +06 09 06.03198
 2018-Jul-31 23:45     00 34 13.530831 +06 09 06.66646
 2018-Jul-31 23:46     00 34 13.615834 +06 09 07.30098
 2018-Jul-31 23:47     00 34 13.700811 +06 09 07.93554
 2018-Jul-31 23:48     00 34 13.785760 +06 09 08.57015
 2018-Jul-31 23:49     00 34 13.870683 +06 09 09.20479
 2018-Jul-31 23:50     00 34 13.955579 +06 09 09.83947
 2018-Jul-31 23:51     00 34 14.040447 +06 09 10.47419
 2018-Jul-31 23:52     00 34 14.125289 +06 09 11.10895
 2018-Jul-31 23:53     00 34 14.210103 +06 09 11.74375
 2018-Jul-31 23:54     00 34 14.294890 +06 09 12.37859
 2018-Jul-31 23:55     00 34 14.379650 +06 09 13.01346
 2018-Jul-31 23:56     00 34 14.464382 +06 09 13.64837
 2018-Jul-31 23:57     00 34 14.549086 +06 09 14.28332
 2018-Jul-31 23:58     00 34 14.633762 +06 09 14.91831
 2018-Jul-31 23:59     00 34 14.718411 +06 09 15.55334
 2018-Aug-01 00:00     00 34 14.803032 +06 09 16.18840
 2018-Aug-01 00:01     00 34 14.887624 +06 09 16.82350
 2018-Aug-01 00:02     00 34 14.972189 +06 09 17.45864
 2018-Aug-01 00:03     00 34 15.056725 +06 09 18.09382
 2018-Aug-01 00:04     00 34 15.141232 +06 09 18.72903
 2018-Aug-01 00:05     00 34 15.225711 +06 09 19.36428
 2018-Aug-01 00:06     00 34 15.310162 +06 09 19.99956
 2018-Aug-01 00:07     00 34 15.394584 +06 09 20.63488
 2018-Aug-01 00:08     00 34 15.478977 +06 09 21.27024
 2018-Aug-01 00:09     00 34 15.563341 +06 09 21.90563
 2018-Aug-01 00:10     00 34 15.647676 +06 09 22.54105
 2018-Aug-01 00:11     00 34 15.731982 +06 09 23.17652
 2018-Aug-01 00:12     00 34 15.816259 +06 09 23.81201
 2018-Aug-01 00:13     00 34 15.900506 +06 09 24.44755
 2018-Aug-01 00:14     00 34 15.984724 +06 09 25.08311
 2018-Aug-01 00:15     00 34 16.068913 +06 09 25.71871
 2018-Aug-01 00:16     00 34 16.153072 +06 09 26.35435
 2018-Aug-01 00:17     00 34 16.237202 +06 09 26.99002
 2018-Aug-01 00:18     00 34 16.321301 +06 09 27.62572
 2018-Aug-01 00:19     00 34 16.405371 +06 09 28.26146
 2018-Aug-01 00:20     00 34 16.489411 +06 09 28.89723
